CUTE-1 (CO-55)          
1 27844U 03031E   22181.79124541  .00000099  00000+0  64087-4 0  9995
2 27844  98.6777 189.2757 0011060  66.6017 293.6323 14.22460263985767
CUBESAT XI-IV (CO-57)   
1 27848U 03031J   22181.75838824  .00000085  00000+0  58211-4 0  9998
2 27848  98.6822 189.7604 0011005  79.3647 280.8770 14.22016292985579
CUBESAT XI-V            
1 28895U 05043F   22181.84320909  .00000358  00000+0  76566-4 0  9992
2 28895  98.1086 313.0162 0018025  99.1711 261.1532 14.64365546889375
CUTE-1.7+APD II (CO-65) 
1 32785U 08021C   22181.66342259  .00000775  00000+0  86670-4 0  9996
2 32785  97.6578 152.0937 0012372 182.7607 177.3545 14.89627804768453
AAUSAT-II               
1 32788U 08021F   22181.86798208  .00000952  00000+0  86229-4 0  9997
2 32788  97.5335 166.7087 0012928  78.1741 282.0931 14.97571034770445
DELFI-C3 (DO-64)        
1 32789U 08021G   22181.63554834  .00004798  00000+0  26716-3 0  9994
2 32789  97.3371 207.4585 0008131 277.8090  82.2219 15.14058203773929
SEEDS II (CO-66)        
1 32791U 08021J   22181.58170765  .00000909  00000+0  93237-4 0  9991
2 32791  97.6118 157.4941 0013682 140.0428 220.1801 14.92721784769153
SWISSCUBE               
1 35932U 09051B   22181.83752981  .00000273  00000+0  71720-4 0  9996
2 35932  98.5674  38.1483 0007894  16.2474 343.8974 14.56879620678043
BEESAT-1                
1 35933U 09051C   22181.86113688  .00000233  00000+0  62829-4 0  9991
2 35933  98.5613  39.7931 0006367  30.1299 330.0264 14.56893910678123
ITUPSAT1                
1 35935U 09051E   22181.88676876  .00000207  00000+0  58140-4 0  9990
2 35935  98.5715  39.8719 0008701  30.0379 330.1316 14.56001743677836
TISAT 1                 
1 36799U 10035E   22181.85718847  .00001212  00000+0  12257-3 0  9990
2 36799  98.1812  32.8292 0013004  56.0411 304.2041 14.92943887649767
M-CUBED & EXP-1 PRIME   
1 37855U 11061F   22181.86682133  .00003073  00000+0  13957-3 0  9998
2 37855 101.7116 308.0402 0152514  22.1888 338.5835 15.12596300583262
AEROCUBE 4.5A           
1 38767U 12048K   22181.89778700  .00001064  00000+0  85463-4 0  9996
2 38767  64.6645  68.6230 0175673 258.8867  99.2450 14.94914922152790
AEROCUBE 4.5B           
1 38768U 12048L   22181.87092362  .00001590  00000+0  11033-3 0  9993
2 38768  64.6664  22.9617 0162790 254.2820 104.0288 14.99657219153163
STRAND-1                
1 39090U 13009E   22181.82327948  .00000063  00000+0  36825-4 0  9997
2 39090  98.4039  19.6104 0008081 226.5198 133.5316 14.35297835489311
BRITE-AUSTRIA           
1 39091U 13009F   22181.80819379  .00000044  00000+0  30133-4 0  9995
2 39091  98.4053  18.7660 0009419 234.6824 125.3482 14.35279116489345
SOMP                    
1 39134U 13015E   22181.90922724  .00005318  00000+0  19349-3 0  9994
2 39134  64.8619  17.7206 0035169 277.4028  82.3107 15.28801678508913
BEESAT-3                
1 39135U 13015F   22181.90970922  .00003764  00000+0  15993-3 0  9992
2 39135  64.8663  54.0887 0038005 284.1528  75.5380 15.24088565508166
BEESAT-2                
1 39136U 13015G   22181.90083467  .00003630  00000+0  16133-3 0  9991
2 39136  64.8752  62.3489 0017138 296.1090  63.8275 15.23100245507966
NEE-01 PEGASO           
1 39151U 13018B   22181.82190460  .00000525  00000+0  74611-4 0  9990
2 39151  97.9927 287.4389 0016231 207.5451 152.4903 14.80964174495659
ESTCUBE 1               
1 39161U 13021C   22181.73731741  .00000746  00000+0  12379-3 0  9995
2 39161  97.9073 258.6272 0010181  27.0425 333.1308 14.72975453491428
POPACS 1                
1 39268U 13055D   22181.84239185  .00009846  00000+0  24806-3 0  9995
2 39268  80.9948 225.0930 0571303 160.0135 202.4474 14.50647506455245
POPACS 2                
1 39269U 13055E   22181.70289318  .00002829  00000+0  78002-4 0  9996
2 39269  81.0133 282.4298 0645557 308.8161  45.7039 14.33104419452088
POPACS 3                
1 39270U 13055F   22181.81515156  .00002876  00000+0  85485-4 0  9997
2 39270  81.0155 315.4142 0689048  42.2200 322.9965 14.22064486430536
ZACUBE-1 (TSHEPISOSAT)  
1 39417U 13066B   22181.86753721  .00000895  00000+0  11503-3 0  9997
2 39417  97.6369 152.7588 0057903   2.4114 357.7368 14.82384611465112
WNISAT-1                
1 39423U 13066H   22181.92520157  .00000439  00000+0  95017-4 0  9993
2 39423  97.7536  62.4126 0175590  95.6076 266.5147 14.53497061456412
TRITON-1                
1 39427U 13066M   22181.82155394  .00000386  00000+0  68336-4 0  9998
2 39427  97.8135 117.0364 0110700 221.4567 137.8203 14.68994822460746
DELFI-N3XT              
1 39428U 13066N   22181.80692370  .00000702  00000+0  11579-3 0  9995
2 39428  97.8147 115.5920 0115803 234.8553 124.1760 14.69228708460496
GOMX-1                  
1 39430U 13066Q   22182.02246269  .00000686  00000+0  13080-3 0  9995
2 39430  97.8093  88.4469 0149528   2.7636 357.4357 14.60220724458277
CUBEBUG-2 (LO-74)       
1 39440U 13066AA  22181.86922598  .00000740  00000+0  10650-3 0  9994
2 39440  97.7267 138.8621 0080366  87.9351 273.1060 14.77034895462262
NEE-02 KRYSAOR          
1 39441U 13066AB  22181.81518916  .00000503  00000+0  76758-4 0  9994
2 39441  97.7378 135.9891 0082142 101.5016 259.5431 14.75761854462000
FUNCUBE-1 (AO-73)       
1 39444U 13066AE  22181.87440581  .00001055  00000+0  13124-3 0  9995
2 39444  97.6248 155.1724 0056393 350.5860   9.4293 14.83477177463515
UWE-3                   
1 39446U 13066AG  22181.86785612  .00000870  00000+0  11817-3 0  9994
2 39446  97.6861 145.3513 0069932  46.5142 314.1856 14.79600950462447
AEROCUBE 5A             
1 39465U 13072D   22181.74600739  .00011667  00000+0  70059-3 0  9994
2 39465 120.4870   2.1251 0196408 293.6365  64.4193 14.96803548151613
AEROCUBE 5B             
1 39466U 13072E   22181.78126561  .00036809  00000+0  13599-2 0  9995
2 39466 120.4588  90.1093 0141834 316.9675  42.0381 15.18519390152758
BRITE-CA1 (TORONTO)     
1 40020U 14033L   22181.71738926  .00000225  00000+0  46471-4 0  9998
2 40020  97.7797 340.0027 0085919 220.4337 139.0462 14.67051242429601
DUCHIFAT-1              
1 40021U 14033M   22181.81211183  .00001812  00000+0  18012-3 0  9993
2 40021  98.0133 132.2559 0012634   5.0835 355.0510 14.92940867436694
NANOSATC-BR1            
1 40024U 14033Q   22181.82749123  .00001050  00000+0  10995-3 0  9993
2 40024  97.9862 125.5712 0012284  11.1893 348.9596 14.91776219435975
QB50P1                  
1 40025U 14033R   22181.81776250  .00000923  00000+0  10021-3 0  9992
2 40025  97.9610 119.3213 0012814  20.4421 339.7307 14.90546295435755
QB50P2                  
1 40032U 14033Y   22181.78124745  .00000898  00000+0  99036-4 0  9997
2 40032  97.9382 114.6157 0012175  18.5743 341.5916 14.89970035435601
PERSEUS-M2              
1 40037U 14033AD  22181.76367678  .00000381  00000+0  48493-4 0  9992
2 40037  97.8966 103.9110 0015239  39.1008 321.1306 14.87120291435101
PERSEUS-M1              
1 40039U 14033AF  22181.76194256  .00000374  00000+0  48124-4 0  9997
2 40039  97.8868 101.6482 0015073  38.3048 321.9235 14.86729382434981
POLYITAN-1              
1 40042U 14033AJ  22181.83183170  .00001270  00000+0  13561-3 0  9994
2 40042  97.9713 120.5436 0014805  11.6903 348.4655 14.90576249435641
TIGRISAT                
1 40043U 14033AK  22181.52403095  .00000488  00000+0  77471-4 0  9993
2 40043  97.6560  10.0786 0060633 113.6100 247.1492 14.75032358431553
AEROCUBE 6A             
1 40045U 14033AM  22181.82017992  .00000527  00000+0  80767-4 0  9991
2 40045  97.6659  19.1679 0058452 100.6693 260.1108 14.76421223431759
AEROCUBE 6B             
1 40046U 14033AN  22181.86205432  .00000911  00000+0  13347-3 0  9990
2 40046  97.6572  17.6645 0057385  98.8655 261.9059 14.76765225431768
UKUBE-1                 
1 40074U 14037F   22181.89118784  .00001231  00000+0  14977-3 0  9997
2 40074  98.3810  63.2632 0003068 247.4267 112.6607 14.85442802432063
BRITE-PL2 (HEWELIUSZ)   
1 40119U 14049B   22181.75141227  .00000421  00000+0  55507-4 0  9998
2 40119  97.8845 277.2401 0016918 194.0387 166.0360 14.85151766425982
FIREBIRD 4              
1 40378U 15003C   22181.86381614  .00007249  00000+0  21676-3 0  9998
2 40378  99.0990  49.9817 0099039 340.1832  19.5566 15.30228128410479
GRIFEX                  
1 40379U 15003D   22181.85232277  .00004620  00000+0  16495-3 0  9991
2 40379  99.1101  35.7414 0115524  22.8679 337.7638 15.23425028409666
CP10 (EXOCUBE)          
1 40380U 15003E   22181.85232609  .00003527  00000+0  13751-3 0  9999
2 40380  99.1193  28.5095 0123992  46.8750 314.2770 15.19999765409192
TIANWANG 1A (TW-1A)     
1 40928U 15051D   22181.89220193  .00043416  00000+0  52150-3 0  9996
2 40928  97.0373 204.4320 0005134 356.5149 106.4752 15.60749113380334
EXACTVIEW 9             
1 40936U 15052G   22181.67894778  .00001067  00000+0  58821-4 0  9996
2 40936   6.0041  79.1473 0010520 340.7000  19.2730 14.77175690365179
AEROCUBE 5C             
1 40965U 15058B   22181.86934019  .00000467  00000+0  69517-4 0  9995
2 40965  64.7778  50.6424 0191351 195.9938 163.5074 14.75630928150940
AEROCUBE 7              
1 40966U 15058C   22181.86286462  .00000634  00000+0  86803-4 0  9991
2 40966  64.7778  47.8240 0189382 195.6521 163.8682 14.76185501150942
ATHENOXAT 1             
1 41168U 15077C   22181.88907407  .00009041  00000+0  35895-3 0  9993
2 41168  14.9891 350.8077 0009462  71.7817 157.8062 15.21268758362359
GALASSIA                
1 41170U 15077E   22181.12031343  .00005108  00000+0  19309-3 0  9992
2 41170  14.9901 347.4196 0010918  85.3049 274.8520 15.20553824362151
VELOX-II                
1 41171U 15077F   22181.87446870  .00003611  00000+0  14719-3 0  9997
2 41171  14.9922  55.7670 0007986 296.0304  63.9195 15.15926393361655
HORYU-4                 
1 41340U 16012D   22181.58489845  .00001459  00000+0  98287-4 0  9993
2 41340  31.0043 275.2619 0013254 331.1261  28.8641 15.03389511349707
